COSMOS 1953             
1 19210U 88050A   24133.97912170  .00012541  00000+0  67624-3 0  9993
2 19210  82.5133 101.1260 0012605 295.9671  64.0262 15.14599336936533
SL-8 R/B                
1 19257U 88053B   24133.82171907  .00001153  00000+0  38771-3 0  9994
2 19257  74.0477 259.1637 0021103 246.5253 225.6640 14.38156920880844
COSMOS 1975             
1 19573U 88093A   24133.85986226  .00011499  00000+0  63242-3 0  9995
2 19573  82.5285  58.7955 0014357 350.0402  10.0542 15.13872114918171
SL-14 R/B               
1 19574U 88093B   24134.21276028  .00001580  00000+0  18434-3 0  9992
2 19574  82.5293 306.1683 0022670  79.4442  93.8048 14.84411195923353
SL-16 R/B               
1 19650U 88102B   24133.92236736  .00000169  00000+0  10998-3 0  9996
2 19650  70.9971 112.1567 0016157 299.6935  60.2580 14.15964417832648
INTERCOSMOS 24          
1 20261U 89080A   24134.48685725  .00001952  00000+0  57373-3 0  9999
2 20261  82.6063 176.6896 1195408  34.7293 332.6226 12.57955950582699
SL-14 R/B               
1 20262U 89080C   24133.77860165  .00000709  00000+0  21729-3 0  9999
2 20262  82.5956 240.5938 1232558 266.1578  79.8087 12.49652789576944
DELTA 1 R/B             
1 20323U 89089B   24134.41110531  .00002088  00000+0  53634-3 0  9995
2 20323  97.1149  74.5111 0072001  62.4088 298.4398 14.49462241819840
ARIANE 40 R/B           
1 20443U 90005H   24134.18886835  .00001432  00000+0  47846-3 0  9999
2 20443  98.3949 200.4721 0011155  49.6731 310.5430 14.38914628797326
DELTA 2 R/B(1)          
1 20453U 90008B   24134.44455726  .00029107  00000+0  11185-2 0  9998
2 20453  35.6196  45.2628 0203430  85.8877 276.5066 15.08427439824276
COSMOS 2058             
1 20465U 90010A   24133.83456388  .00007656  00000+0  56186-3 0  9997
2 20465  82.4862 338.6557 0015533  68.3634 291.9245 15.03251139841918
SL-14 R/B               
1 20466U 90010B   24133.83448418  .00001337  00000+0  16358-3 0  9990
2 20466  82.5028 172.2407 0019476 337.3814  22.6540 14.82401694829797
SL-14 R/B               
1 20511U 90018B   24134.23192062  .00001363  00000+0  17251-3 0  9997
2 20511  82.5192 124.6269 0018113 117.7375 242.5678 14.81005823845130
HST                     
1 20580U 90037B   24133.93546526  .00010058  00000+0  48200-3 0  9997
2 20580  28.4678 221.2346 0002503  24.4334 335.6376 15.17253299671676
SL-16 R/B               
1 20625U 90046B   24133.74474327  .00000398  00000+0  23057-3 0  9994
2 20625  70.9989 256.3265 0016116 240.2328 119.7192 14.14827327754199
COSMOS 2084             
1 20663U 90055A   24134.20069482  .00006457  00000+0  48509-3 0  9991
2 20663  62.7919  74.6089 0115685 116.7709 244.5280 14.98328556836333
SL-6 R/B(2)             
1 20666U 90055D   24133.90244463  .00006043  00000+0  48518-3 0  9995
2 20666  62.7856 349.4059 0091315 139.4180 221.3772 14.97845233838240
SL-8 R/B                
1 20775U 90078B   24133.93865304  .00025533  00000+0  10184-2 0  9999
2 20775  82.9141 116.6216 0477255  46.6092 317.3830 14.58916128711186
SL-8 R/B                
1 21088U 91006B   24133.96206206  .00000329  00000+0  31513-3 0  9998
2 21088  82.9398 305.2448 0023910  99.4446  14.6986 13.77338743672428
OKEAN-3                 
1 21397U 91039A   24133.83812090  .00006613  00000+0  55617-3 0  9990
2 21397  82.5197 258.8402 0017239  71.3721 288.9372 14.98013438765107
COSMOS 2151             
1 21422U 91042A   24134.11792356  .00004516  00000+0  40320-3 0  9992
2 21422  82.5003   3.5554 0014421 138.1876 222.0450 14.95660720784698
SL-14 R/B               
1 21423U 91042B   24134.22109349  .00001362  00000+0  17380-3 0  9995
2 21423  82.4909 123.7870 0015685 266.4217  93.5202 14.80736056775591
ERS-1                   
1 21574U 91050A   24134.22498062  .00001274  00000+0  42928-3 0  9992
2 21574  98.7770 125.1338 0032904  17.4432 342.7876 14.38508130720000
ARIANE 40 R/B           
1 21610U 91050F   24134.17831013  .00001608  00000+0  50488-3 0  9995
2 21610  98.2913 197.1045 0001872 299.8315  60.2688 14.41829553723325
INTERCOSMOS 25          
1 21819U 91086A   24133.88747846  .00004423  00000+0  87132-3 0  9996
2 21819  82.6081 351.5704 1501940 108.8015 268.1599 12.08673599416131
SL-8 R/B                
1 21876U 92008B   24133.89648139  .00000240  00000+0  23105-3 0  9993
2 21876  82.9298  42.8518 0034314 191.9328 238.9535 13.75823104617867
SL-8 R/B                
1 21938U 92020B   24133.96417265  .00000288  00000+0  28310-3 0  9993
2 21938  82.9278 288.1591 0029013 358.6981 117.7770 13.75413812609617
COSMOS 2219             
1 22219U 92076A   24133.90043209  .00000006  00000+0  27971-4 0  9995
2 22219  71.0606 329.6623 0016606 143.9487 216.2759 14.13857786624266
SL-16 R/B               
1 22220U 92076B   24134.18432475  .00000150  00000+0  98768-4 0  9997
2 22220  70.9977 150.0547 0011829  19.9399  47.2002 14.16651795627906
COSMOS 2221             
1 22236U 92080A   24133.90829646  .00005244  00000+0  51954-3 0  9992
2 22236  82.5070 194.6037 0014016 261.9426  98.0203 14.91590570681379
SL-16 R/B               
1 22285U 92093B   24133.91754253  .00000530  00000+0  29662-3 0  9996
2 22285  71.0213 321.7139 0006205 250.0514 109.9940 14.15251100618952
COSMOS 2228             
1 22286U 92094A   24133.86020923  .00005700  00000+0  55715-3 0  9994
2 22286  82.5176 152.5060 0020174  23.4648 336.7487 14.92054379676585
SL-16 R/B               
1 22566U 93016B   24133.54117390 -.00000048  00000+0 -34601-6 0  9996
2 22566  71.0067 174.1181 0012758 259.7737 100.1947 14.15131655607928
COSMOS 2242             
1 22626U 93024A   24134.22218670  .00003963  00000+0  39001-3 0  9994
2 22626  82.5207 180.9705 0018064  23.8450 336.3602 14.91743387681325
SL-16 R/B               
1 22803U 93059B   24134.27874798  .00000105  00000+0  75774-4 0  9996
2 22803  70.9908 334.1510 0016024 150.9196 209.2824 14.17024383585526
ARIANE 40 R/B           
1 22830U 93061H   24134.20599655  .00001148  00000+0  44303-3 0  9999
2 22830  98.5724 202.2432 0012072  91.9348 268.3218 14.32090890599079
COSMOS 2278             
1 23087U 94023A   24134.24200507  .00000515  00000+0  29516-3 0  9998
2 23087  71.0501 127.0664 0009979 314.4461  45.5844 14.14079025550978
SL-16 R/B               
1 23088U 94023B   24134.40071955  .00000165  00000+0  11017-3 0  9998
2 23088  71.0011  27.8957 0005191 243.1844 116.8748 14.14837890552252
SL-16 R/B               
1 23343U 94074B   24134.12990272  .00001671  00000+0  23825-3 0  9992
2 23343  97.7903 178.2462 0005805 214.7748 205.9038 14.78027761589094
SL-16 R/B               
1 23405U 94077B   24133.93394306  .00000029  00000+0  39611-4 0  9995
2 23405  70.9829 312.9408 0000371 143.0786 217.0362 14.15389090522020
ARIANE 40+ R/B          
1 23561U 95021B   24134.21754650  .00001365  00000+0  45817-3 0  9990
2 23561  98.5287 200.8777 0006277 343.2643  85.8092 14.38827656523738
SL-16 R/B               
1 23705U 95058B   24134.19257376  .00000447  00000+0  25353-3 0  9993
2 23705  71.0194 137.2983 0010790  47.2287 312.9741 14.15311323473983
SL-16 R/B               
1 24298U 96051B   24134.45322639 -.00000097  00000+0 -25982-4 0  9991
2 24298  70.8045 142.1269 0015097  29.6204 330.5768 14.12484317427977
ORBVIEW 2 (SEASTAR)     
1 24883U 97037A   24134.13253988  .00001289  00000+0  47338-3 0  9991
2 24883  98.7702 273.4979 0001820 189.5224 170.5926 14.34505830413273
SL-16 R/B               
1 25400U 98043G   24134.45258826  .00000366  00000+0  17271-3 0  9994
2 25400  98.7432  75.5970 0010527 140.3301 219.8651 14.25742369344417
SL-16 R/B               
1 25407U 98045B   24134.45456929  .00000049  00000+0  49020-4 0  9993
2 25407  71.0091 140.3668 0009259 308.2636  51.7654 14.15998416333194
ISS (ZARYA)             
1 25544U 98067A   24134.72219907  .00031968  00000+0  54029-3 0  9990
2 25544  51.6378 126.2421 0002670 157.7668 188.1758 15.51305382453198
CZ-4B R/B               
1 25732U 99025C   24133.98434034  .00000451  00000+0  23978-3 0  9993
2 25732  98.7542 179.6012 0038416  96.6945 330.2023 14.17955741293813
OKEAN-O                 
1 25860U 99039A   24134.15969205  .00003101  00000+0  43316-3 0  9996
2 25860  98.0377 186.5832 0001237  72.7806 287.3540 14.78375814336079
SL-16 R/B               
1 25861U 99039B   24134.14290371  .00002264  00000+0  30577-3 0  9991
2 25861  98.0908 179.8460 0013900 250.2109 109.7603 14.80028669338481
DELTA 2 R/B             
1 25876U 99041E   24134.53541515  .00002238  00000+0  40753-3 0  9990
2 25876  51.7640  71.2272 0517674 190.2124 168.7956 14.08106228269194
HELIOS 1B               
1 25977U 99064A   24134.18635686  .00003410  00000+0  41353-3 0  9991
2 25977  98.2490   4.6614 0002583  78.2810 281.8693 14.84291486317723
TERRA                   
1 25994U 99068A   24134.47254928  .00001974  00000+0  42303-3 0  9991
2 25994  98.0497 198.9778 0003395 105.7689 310.9161 14.59738304298108
SL-16 R/B               
1 26070U 00006B   24133.94503463  .00000214  00000+0  13337-3 0  9994
2 26070  71.0039  57.4887 0014535 118.9581 241.3001 14.15634044254337
TITAN 4B R/B            
1 26474U 00047B   24134.30719784  .00007145  00000+0  54499-3 0  9997
2 26474  67.9920 101.2847 0044244  63.6307 296.9370 15.01762688292805
ENVISAT                 
1 27386U 02009A   24134.53602122  .00000533  00000+0  18785-3 0  9994
2 27386  98.2801  96.8341 0001202  88.5383  25.8722 14.38566095163594
IDEFIX & ARIANE 42P R/B 
1 27422U 02021B   24134.44839377  .00001261  00000+0  50443-3 0  9999
2 27422  98.5261  72.8311 0011935 352.7163   7.3844 14.30089758147001
AQUA                    
1 27424U 02022A   24134.48342880  .00003895  00000+0  83500-3 0  9999
2 27424  98.3284  83.7293 0001105 110.2313   2.0508 14.59244518171653
CZ-4B R/B               
1 27432U 02024C   24134.14423219  .00000313  00000+0  18482-3 0  9998
2 27432  98.9779 176.2915 0051355 109.9460 318.4827 14.14313199135231
